{"fetched_at":"2026-07-08T17:59:26.812Z","source":"https://celestrak.org/NORAD/elements/gp.php?GROUP=planet&FORMAT=JSON","constellation":"superdove","records":[{"OBJECT_NAME":"FLOCK 4BE-3","OBJECT_ID":"2024-149CX","EPOCH":"2026-07-07T17:15:57.220128","CLASSIFICATION_TYPE":"U","MEAN_MOTION":15.42213425,"ECCENTRICITY":0.000439,"INCLINATION":97.3688,"RA_OF_ASC_NODE":272.8366,"ARG_OF_PERICENTER":191.8031,"MEAN_ANOMALY":168.3114,"EPHEMERIS_TYPE":0,"NORAD_CAT_ID":60561,"ELEMENT_SET_NO":999,"REV_AT_EPOCH":10550,"BSTAR":0.00028731,"MEAN_MOTION_DOT":0.00012255,"MEAN_MOTION_DDOT":0},{"OBJECT_NAME":"FLOCK 4BE-19","OBJECT_ID":"2024-149CZ","EPOCH":"2026-07-08T12:02:04.308000","CLASSIFICATION_TYPE":"U","MEAN_MOTION":15.45419104,"ECCENTRICITY":0.000529,"INCLINATION":97.374,"RA_OF_ASC_NODE":275.2726,"ARG_OF_PERICENTER":195.5071,"MEAN_ANOMALY":164.6016,"EPHEMERIS_TYPE":0,"NORAD_CAT_ID":60563,"ELEMENT_SET_NO":999,"REV_AT_EPOCH":10571,"BSTAR":0.00039698,"MEAN_MOTION_DOT":0.00018924,"MEAN_MOTION_DDOT":0},{"OBJECT_NAME":"FLOCK 4G-8","OBJECT_ID":"2025-009E","EPOCH":"2026-07-08T11:20:07.182240","CLASSIFICATION_TYPE":"U","MEAN_MOTION":15.30156447,"ECCENTRICITY":0.0003366,"INCLINATION":97.4,"RA_OF_ASC_NODE":271.3924,"ARG_OF_PERICENTER":217.6646,"MEAN_ANOMALY":142.4359,"EPHEMERIS_TYPE":0,"NORAD_CAT_ID":62613,"ELEMENT_SET_NO":999,"REV_AT_EPOCH":8217,"BSTAR":0.00024172,"MEAN_MOTION_DOT":0.00006978,"MEAN_MOTION_DDOT":0},{"OBJECT_NAME":"FLOCK 4G-13","OBJECT_ID":"2025-009N","EPOCH":"2026-07-08T12:09:55.154304","CLASSIFICATION_TYPE":"U","MEAN_MOTION":15.48105612,"ECCENTRICITY":0.0005962,"INCLINATION":97.3941,"RA_OF_ASC_NODE":273.2031,"ARG_OF_PERICENTER":214.503,"MEAN_ANOMALY":145.5834,"EPHEMERIS_TYPE":0,"NORAD_CAT_ID":62621,"ELEMENT_SET_NO":999,"REV_AT_EPOCH":8229,"BSTAR":0.0013754,"MEAN_MOTION_DOT":0.00072657,"MEAN_MOTION_DDOT":0},{"OBJECT_NAME":"FLOCK 4G-9","OBJECT_ID":"2025-009P","EPOCH":"2026-07-08T11:41:53.926080","CLASSIFICATION_TYPE":"U","MEAN_MOTION":15.28431859,"ECCENTRICITY":0.0003442,"INCLINATION":97.3954,"RA_OF_ASC_NODE":270.2838,"ARG_OF_PERICENTER":233.3745,"MEAN_ANOMALY":126.7179,"EPHEMERIS_TYPE":0,"NORAD_CAT_ID":62622,"ELEMENT_SET_NO":999,"REV_AT_EPOCH":8211,"BSTAR":0.00023567,"MEAN_MOTION_DOT":0.00006449,"MEAN_MOTION_DDOT":0},{"OBJECT_NAME":"FLOCK 4G-7","OBJECT_ID":"2025-009R","EPOCH":"2026-07-07T19:12:46.977408","CLASSIFICATION_TYPE":"U","MEAN_MOTION":15.29733095,"ECCENTRICITY":0.0001757,"INCLINATION":97.3936,"RA_OF_ASC_NODE":270.0051,"ARG_OF_PERICENTER":209.6424,"MEAN_ANOMALY":150.4717,"EPHEMERIS_TYPE":0,"NORAD_CAT_ID":62624,"ELEMENT_SET_NO":999,"REV_AT_EPOCH":8205,"BSTAR":0.00022372,"MEAN_MOTION_DOT":0.00006368,"MEAN_MOTION_DDOT":0},{"OBJECT_NAME":"FLOCK 4G-12","OBJECT_ID":"2025-009S","EPOCH":"2026-07-08T04:30:36.770976","CLASSIFICATION_TYPE":"U","MEAN_MOTION":15.29671988,"ECCENTRICITY":0.000345,"INCLINATION":97.4016,"RA_OF_ASC_NODE":270.9337,"ARG_OF_PERICENTER":214.9256,"MEAN_ANOMALY":145.1758,"EPHEMERIS_TYPE":0,"NORAD_CAT_ID":62625,"ELEMENT_SET_NO":999,"REV_AT_EPOCH":8211,"BSTAR":0.00024284,"MEAN_MOTION_DOT":0.00006906,"MEAN_MOTION_DDOT":0},{"OBJECT_NAME":"FLOCK 4G-11","OBJECT_ID":"2025-009W","EPOCH":"2026-07-08T12:00:29.522016","CLASSIFICATION_TYPE":"U","MEAN_MOTION":15.29787126,"ECCENTRICITY":0.0001924,"INCLINATION":97.392,"RA_OF_ASC_NODE":270.8106,"ARG_OF_PERICENTER":209.177,"MEAN_ANOMALY":150.9364,"EPHEMERIS_TYPE":0,"NORAD_CAT_ID":62629,"ELEMENT_SET_NO":999,"REV_AT_EPOCH":8217,"BSTAR":0.0003035,"MEAN_MOTION_DOT":0.00008682,"MEAN_MOTION_DDOT":0},{"OBJECT_NAME":"FLOCK 4G-26","OBJECT_ID":"2025-009AA","EPOCH":"2026-07-08T04:30:18.512928","CLASSIFICATION_TYPE":"U","MEAN_MOTION":15.29962849,"ECCENTRICITY":0.0002947,"INCLINATION":97.4011,"RA_OF_ASC_NODE":271.0916,"ARG_OF_PERICENTER":201.6977,"MEAN_ANOMALY":158.4139,"EPHEMERIS_TYPE":0,"NORAD_CAT_ID":62633,"ELEMENT_SET_NO":999,"REV_AT_EPOCH":8212,"BSTAR":0.00027038,"MEAN_MOTION_DOT":0.00007768,"MEAN_MOTION_DDOT":0},{"OBJECT_NAME":"FLOCK 4G-28","OBJECT_ID":"2025-009AB","EPOCH":"2026-07-08T12:04:28.950240","CLASSIFICATION_TYPE":"U","MEAN_MOTION":15.35202688,"ECCENTRICITY":0.000152,"INCLINATION":97.402,"RA_OF_ASC_NODE":274.137,"ARG_OF_PERICENTER":176.1511,"MEAN_ANOMALY":183.9744,"EPHEMERIS_TYPE":0,"NORAD_CAT_ID":62634,"ELEMENT_SET_NO":999,"REV_AT_EPOCH":8235,"BSTAR":0.00018752,"MEAN_MOTION_DOT":0.00006326,"MEAN_MOTION_DDOT":0},{"OBJECT_NAME":"FLOCK 4G-20","OBJECT_ID":"2025-009AD","EPOCH":"2026-07-08T12:12:19.450080","CLASSIFICATION_TYPE":"U","MEAN_MOTION":15.59104398,"ECCENTRICITY":0.0005908,"INCLINATION":97.3846,"RA_OF_ASC_NODE":274.6664,"ARG_OF_PERICENTER":220.5579,"MEAN_ANOMALY":139.5238,"EPHEMERIS_TYPE":0,"NORAD_CAT_ID":62636,"ELEMENT_SET_NO":999,"REV_AT_EPOCH":8243,"BSTAR":0.0015977,"MEAN_MOTION_DOT":0.00126465,"MEAN_MOTION_DDOT":0},{"OBJECT_NAME":"FLOCK 4G-24","OBJECT_ID":"2025-009AE","EPOCH":"2026-07-08T11:05:10.516128","CLASSIFICATION_TYPE":"U","MEAN_MOTION":15.30277361,"ECCENTRICITY":0.0003003,"INCLINATION":97.4017,"RA_OF_ASC_NODE":271.6661,"ARG_OF_PERICENTER":186.1869,"MEAN_ANOMALY":173.9335,"EPHEMERIS_TYPE":0,"NORAD_CAT_ID":62637,"ELEMENT_SET_NO":999,"REV_AT_EPOCH":8218,"BSTAR":0.00020284,"MEAN_MOTION_DOT":0.00005864,"MEAN_MOTION_DDOT":0},{"OBJECT_NAME":"FLOCK 4G-3","OBJECT_ID":"2025-009AG","EPOCH":"2026-07-07T16:01:54.698016","CLASSIFICATION_TYPE":"U","MEAN_MOTION":15.29766292,"ECCENTRICITY":0.0002464,"INCLINATION":97.4019,"RA_OF_ASC_NODE":270.5886,"ARG_OF_PERICENTER":192.9704,"MEAN_ANOMALY":167.1473,"EPHEMERIS_TYPE":0,"NORAD_CAT_ID":62639,"ELEMENT_SET_NO":999,"REV_AT_EPOCH":8203,"BSTAR":0.000226,"MEAN_MOTION_DOT":0.0000644,"MEAN_MOTION_DDOT":0},{"OBJECT_NAME":"FLOCK 4G-27","OBJECT_ID":"2025-009AJ","EPOCH":"2026-07-07T18:03:51.784416","CLASSIFICATION_TYPE":"U","MEAN_MOTION":15.29712389,"ECCENTRICITY":0.0001812,"INCLINATION":97.3926,"RA_OF_ASC_NODE":270.0304,"ARG_OF_PERICENTER":191.2603,"MEAN_ANOMALY":168.8597,"EPHEMERIS_TYPE":0,"NORAD_CAT_ID":62641,"ELEMENT_SET_NO":999,"REV_AT_EPOCH":8204,"BSTAR":0.00025023,"MEAN_MOTION_DOT":0.00007127,"MEAN_MOTION_DDOT":0},{"OBJECT_NAME":"FLOCK 4G-29","OBJECT_ID":"2025-009AK","EPOCH":"2026-07-08T10:59:16.707264","CLASSIFICATION_TYPE":"U","MEAN_MOTION":15.29782544,"ECCENTRICITY":0.0002756,"INCLINATION":97.4015,"RA_OF_ASC_NODE":271.3353,"ARG_OF_PERICENTER":186.2861,"MEAN_ANOMALY":173.8345,"EPHEMERIS_TYPE":0,"NORAD_CAT_ID":62642,"ELEMENT_SET_NO":999,"REV_AT_EPOCH":8215,"BSTAR":0.00019894,"MEAN_MOTION_DOT":0.00005662,"MEAN_MOTION_DDOT":0},{"OBJECT_NAME":"FLOCK 4G-22","OBJECT_ID":"2025-009AN","EPOCH":"2026-07-08T11:25:15.631968","CLASSIFICATION_TYPE":"U","MEAN_MOTION":15.29682474,"ECCENTRICITY":0.0002429,"INCLINATION":97.4,"RA_OF_ASC_NODE":271.3894,"ARG_OF_PERICENTER":179.3568,"MEAN_ANOMALY":180.7676,"EPHEMERIS_TYPE":0,"NORAD_CAT_ID":62645,"ELEMENT_SET_NO":999,"REV_AT_EPOCH":8217,"BSTAR":0.00021437,"MEAN_MOTION_DOT":0.00006089,"MEAN_MOTION_DDOT":0}]}
