FLOCK 4BE-3             
1 60561U 24149CX  26188.71941227  .00012255  00000+0  28731-3 0  9994
2 60561  97.3688 272.8366 0004390 191.8031 168.3114 15.42213425105508
FLOCK 4BE-19            
1 60563U 24149CZ  26189.50143875  .00018924  00000+0  39698-3 0  9990
2 60563  97.3740 275.2726 0005290 195.5071 164.6016 15.45419104105719
FLOCK 4G-8              
1 62613U 25009E   26189.47230535  .00006978  00000+0  24172-3 0  9997
2 62613  97.4000 271.3924 0003366 217.6646 142.4359 15.30156447 82170
FLOCK 4G-13             
1 62621U 25009N   26189.50688836  .00072657  00000+0  13754-2 0  9991
2 62621  97.3941 273.2031 0005962 214.5030 145.5834 15.48105612 82291
FLOCK 4G-9              
1 62622U 25009P   26189.48742970  .00006449  00000+0  23567-3 0  9999
2 62622  97.3954 270.2838 0003442 233.3745 126.7179 15.28431859 82118
FLOCK 4G-7              
1 62624U 25009R   26188.80054372  .00006368  00000+0  22372-3 0  9991
2 62624  97.3936 270.0051 0001757 209.6424 150.4717 15.29733095 82055
FLOCK 4G-12             
1 62625U 25009S   26189.18792559  .00006906  00000+0  24284-3 0  9992
2 62625  97.4016 270.9337 0003450 214.9256 145.1758 15.29671988 82111
FLOCK 4G-11             
1 62629U 25009W   26189.50034169  .00008682  00000+0  30350-3 0  9992
2 62629  97.3920 270.8106 0001924 209.1770 150.9364 15.29787126 82177
FLOCK 4G-26             
1 62633U 25009AA  26189.18771427  .00007768  00000+0  27038-3 0  9999
2 62633  97.4011 271.0916 0002947 201.6977 158.4139 15.29962849 82123
FLOCK 4G-28             
1 62634U 25009AB  26189.50311285  .00006326  00000+0  18752-3 0  9990
2 62634  97.4020 274.1370 0001520 176.1511 183.9744 15.35202688 82353
FLOCK 4G-20             
1 62636U 25009AD  26189.50855845  .00126465  00000+0  15977-2 0  9999
2 62636  97.3846 274.6664 0005908 220.5579 139.5238 15.59104398 82432
FLOCK 4G-24             
1 62637U 25009AE  26189.46192727  .00005864  00000+0  20284-3 0  9995
2 62637  97.4017 271.6661 0003003 186.1869 173.9335 15.30277361 82183
FLOCK 4G-3              
1 62639U 25009AG  26188.66799419  .00006440  00000+0  22600-3 0  9994
2 62639  97.4019 270.5886 0002464 192.9704 167.1473 15.29766292 82033
FLOCK 4G-27             
1 62641U 25009AJ  26188.75268269  .00007127  00000+0  25023-3 0  9996
2 62641  97.3926 270.0304 0001812 191.2603 168.8597 15.29712389 82042
FLOCK 4G-29             
1 62642U 25009AK  26189.45783226  .00005662  00000+0  19894-3 0  9991
2 62642  97.4015 271.3353 0002756 186.2861 173.8345 15.29782544 82158
FLOCK 4G-22             
1 62645U 25009AN  26189.47587537  .00006089  00000+0  21437-3 0  9993
2 62645  97.4000 271.3894 0002429 179.3568 180.7676 15.29682474 82176
